KKS-1 (KISEKI)          
1 33499U 09002H   26161.50994661  .00001178  00000+0  15146-3 0  9991
2 33499  98.1192  83.8464 0006916 321.1426  38.9289 14.83106801935204
SWISSCUBE               
1 35932U 09051B   26160.71112973  .00000922  00000+0  19187-3 0  9994
2 35932  98.4042  68.4691 0005562 230.1201 129.9511 14.62467613888060
BEESAT-1                
1 35933U 09051C   26161.53812297  .00000716  00000+0  15360-3 0  9992
2 35933  98.3971  68.9599 0003944 243.2961 116.7836 14.61709764888219
ITUPSAT1                
1 35935U 09051E   26160.97508610  .00000673  00000+0  14898-3 0  9999
2 35935  98.4056  67.5878 0006124 261.1078  98.9428 14.60430038887684
XIWANG-1 (HOPE-1)       
1 36122U 09072B   26161.63195990 -.00000289  00000+0 -63980-3 0  9999
2 36122 100.4020 115.5685 0006805 248.1786 111.8603 13.16437396792145
O/OREOS (USA 219)       
1 37224U 10062C   26161.56610107  .00002087  00000+0  20273-3 0  9992
2 37224  71.9706  95.3363 0012424  77.5503 282.7057 14.93715981115656
JUGNU                   
1 37839U 11058B   26161.25711561  .00000399  00000+0  69141-4 0  9994
2 37839  19.9621 350.5295 0018562 359.9630 156.5973 14.13774890758040
SRMSAT                  
1 37841U 11058D   26161.52450462  .00000356  00000+0  49378-4 0  9990
2 37841  19.9713  99.7947 0011922 130.6142  29.5560 14.11574150756871
STRAND-1                
1 39090U 13009E   26161.23306514  .00000258  00000+0  10110-3 0  9994
2 39090  98.3921 341.6387 0007466 249.0407 110.9981 14.37159178696068
ZACUBE-1 (TSHEPISOSAT)  
1 39417U 13066B   26161.14175542  .00003283  00000+0  25692-3 0  9997
2 39417  97.8088 123.4403 0040113 272.4357  87.2274 15.01145439679670
GOMX-1                  
1 39430U 13066Q   26161.58084668  .00001546  00000+0  23679-3 0  9991
2 39430  97.6495   2.4607 0130160  98.5133 263.0849 14.69434465668941
CUBEBUG-2 (LO-74)       
1 39440U 13066AA  26161.09650600  .00003464  00000+0  32201-3 0  9995
2 39440  97.8902 110.0449 0059087  51.9853 308.6680 14.93705686675936
FUNCUBE-1 (AO-73)       
1 39444U 13066AE  26161.56002196  .00005080  00000+0  31754-3 0  9990
2 39444  97.8263 132.8674 0035007 223.9951 135.8490 15.09408570678660
UWE-3                   
1 39446U 13066AG  26161.59836218  .00003805  00000+0  32851-3 0  9997
2 39446  97.8684 117.6280 0048595 343.1994  16.7615 14.96970973676593
UNISAT-6                
1 40012U 14033C   26161.34253111  .00002394  00000+0  26042-3 0  9998
2 40012  97.7868 314.1760 0046426  91.2128 269.4408 14.88209392645140
DUCHIFAT-1              
1 40021U 14033M   26161.43136475  .00098092  00000+0  10616-2 0  9990
2 40021  98.0468 219.6499 0004197 126.9864 233.1777 15.63249626654695
QB50P1                  
1 40025U 14033R   26161.55924750  .00007227  00000+0  35728-3 0  9990
2 40025  98.0970 172.2408 0007240 241.5773 118.4730 15.18160069652028
LILACSAT-2              
1 40908U 15049K   26161.56399311  .00015995  00000+0  27470-3 0  9994
2 40908  97.4660 198.1544 0005285 277.2208  82.8443 15.51225787594724
FOX-1A (AO-85)          
1 40967U 15058D   26161.57795595  .00002301  00000+0  21318-3 0  9996
2 40967  64.7757 299.5219 0130059  59.1792 302.2043 14.90937599112589
CAS-2T & KS-1Q          
1 41847U 16066G   26161.52223122  .00001558  00000+0  22576-3 0  9991
2 41847  98.3822 237.3346 0342570 149.6411 212.5119 14.44672243503830
RADFXSAT (FOX-1B)       
1 43017U 17073E   26161.59307599  .00007911  00000+0  34602-3 0  9991
2 43017  97.4719  28.9430 0150574 352.0804   7.8050 15.12608951464398
DIWATA-2B               
1 43678U 18084H   26161.56771904  .00002230  00000+0  18240-3 0  9998
2 43678  98.1177 357.4891 0012150 191.7961 168.2978 15.00420507415222
ES'HAIL 2               
1 43700U 18090A   26161.55889796  .00000162  00000+0  00000+0 0  9992
2 43700   0.0124 297.5952 0001894 183.1386   5.2106  1.00273986 27610
FOX-1CLIFF (AO-95)      
1 43770U 18099N   26160.73658427  .00010631  00000+0  40880-3 0  9998
2 43770  97.4390 221.0109 0008751  24.8412 335.3246 15.26553683412087
ITASAT                  
1 43786U 18099AE  26161.63189712  .00006335  00000+0  30555-3 0  9995
2 43786  97.4034 213.2746 0012812  23.0700 337.1107 15.18974140411916
JY1SAT (JO-97)          
1 43803U 18099AX  26161.44021640  .00015949  00000+0  49534-3 0  9997
2 43803  97.4136 224.2518 0004137 295.7294  64.3521 15.33439242412595
UWE-4                   
1 43880U 18111E   26161.61287756  .00029581  00000+0  61235-3 0  9997
2 43880  97.5851  89.7026 0006744   9.3200 350.8173 15.45713387409764
TIANYAN 01              
1 44881U 19093C   26161.65002914  .00000680  00000+0  82771-4 0  9992
2 44881  97.7530 234.0414 0014979 106.0139 254.2728 14.86510030350440
RS-44 & BREEZE-KM R/B   
1 44909U 19096E   26161.59430669  .00000032  00000+0  80700-4 0  9992
2 44909  82.5217 344.0868 0217875 159.5378 201.4622 12.79748699301502
SALSAT                  
1 46495U 20068K   26161.53894844  .00006924  00000+0  24329-3 0  9998
2 46495  97.8853 164.1992 0008621 335.4923  24.5905 15.29703223314342
XW-3 (CAS-9)            
1 50466U 21131B   26161.59861319  .00000359  00000+0  12437-3 0  9993
2 50466  98.4971 254.0240 0005274 112.0154 248.1596 14.41351510234166
GREENCUBE (IO-117)      
1 53109U 22080E   26152.46502029 -.00000003  00000+0  00000+0 0  9996
2 53109  70.1435 303.7143 0008869 293.3663  66.6064  6.42583280 91055
UMKA 1 (RS40S)          
1 57172U 23091G   26161.57994596  .00005871  00000+0  26929-3 0  9998
2 57172  97.5057 220.3027 0013946 138.3432 221.8868 15.20740716163008
CUBESX-HSE 3 (RS42S)    
1 57178U 23091N   26161.57318143  .00011715  00000+0  39217-3 0  9990
2 57178  97.5098 227.0773 0012153 115.0062 245.2442 15.31046056163412
MONITOR-3 (RS58S)       
1 57180U 23091Q   26161.58315058  .00009809  00000+0  36409-3 0  9997
2 57180  97.5090 224.9812 0013069 121.1888 239.0634 15.27706933163289
MONITOR-4 (RS57S)       
1 57182U 23091S   26161.62807761  .00008616  00000+0  31931-3 0  9991
2 57182  97.5084 224.9972 0013068 121.3755 238.8765 15.27799469163294
MONITOR-2 (RS39S)       
1 57184U 23091U   26161.59294099  .00004361  00000+0  21225-3 0  9991
2 57184  97.5079 219.9185 0012495 131.3066 228.9246 15.18847932162954
SVYATOBOR 1 (RS60S)     
1 57187U 23091X   26161.63557329  .00007660  00000+0  29577-3 0  9990
2 57187  97.5095 225.4165 0010908 114.0648 246.1733 15.26501600163318
VIZARD-METEO (RS38S)    
1 57189U 23091Z   26161.56752604  .00014966  00000+0  43108-3 0  9990
2 57189  97.5097 230.9209 0008598  97.3628 262.8593 15.35812743163676
POLYTECH-UNIVERSE 3 (R*)
1 57191U 23091AB  26161.62101401  .00004499  00000+0  21730-3 0  9990
2 57191  97.5054 219.4509 0016458 147.8444 212.3798 15.19049755162952
UTMN 2 (RS27S)          
1 57203U 23091AP  26161.59439210  .00011977  00000+0  39090-3 0  9999
2 57203  97.5093 228.7247 0009467 103.3750 256.8548 15.31888060163535
KUZGTU 1 (RS47S)        
1 57217U 23091AV  26161.49304715  .00010805  00000+0  37716-3 0  9996
2 57217  97.5070 225.9053 0012369 118.6664 241.5821 15.29706460163352
SONATE-2                
1 59112U 24043Q   26161.33229084  .00039539  00000+0  52300-3 0  9999
2 59112  97.5521 311.3113 0006720 218.8804 141.1969 15.58207311126821
MESAT1                  
1 60209U 24125G   26161.57539963  .00047193  00000+0  52925-3 0  9993
2 60209  97.2316  18.9106 0008924 228.8461 131.2028 15.62487131108538
OOV-CUBE (TUBSAT-30)    
1 60240U 24128F   26161.60113742  .00001981  00000+0  16003-3 0  9990
2 60240  61.9950 248.5377 0045443 132.2861 228.2097 15.02746418105120
COLIBRI-S (RS67S)       
1 61746U 24199M   26161.59593414  .00019217  00000+0  37589-3 0  9999
2 61746  97.3009  35.3916 0006417 310.7609  49.3083 15.47450701136398
HORS 3 (RS81S)          
1 61753U 24199U   26161.58899067  .00031905  00000+0  48454-3 0  9990
2 61753  97.2992  37.3007 0004024 318.2409  41.8538 15.54515538136538
HORS 4 (RS82S)          
1 61754U 24199V   26161.63334631  .00047909  00000+0  61299-3 0  9991
2 61754  97.2941  38.5056 0003089 304.0243  56.0720 15.59072972136625
ARCTICSAT 1 (RS74S)     
1 61762U 24199AD  26161.52165523  .01204176  10017-2  10263-2 0  9998
2 61762  97.2858  45.3165 0010294 204.0714 156.0092 16.13658022137054
SIT-2086                
1 61764U 24199AF  26161.62366780  .00033780  00000+0  54884-3 0  9995
2 61764  97.2949  37.8354 0004384 288.1783  71.8992 15.52632623133415
HYPERVIEW 1G (RS66S)    
1 61772U 24199AP  26161.58203978  .00069962  00000+0  48810-3 0  9991
2 61772  97.2897  40.9753 0002263 260.7408  99.3601 15.74115316133633
ALTAIR (RS65S)          
1 61779U 24199AW  26161.60146155  .00010387  00000+0  28945-3 0  9998
2 61779  97.3046  30.9964 0011751 337.5895  22.4835 15.36900415136106
ASRTU-1 (AO-123)        
1 61781U 24199AY  26161.58363089  .00006947  00000+0  20268-3 0  9992
2 61781  97.3016  30.3144 0012967 339.9674  20.1060 15.35580188132911
SAMSAT-IONOSPHERE (RS7*)
1 61784U 24199BB  26161.63399816  .00040383  00000+0  55759-3 0  9993
2 61784  97.2963  37.3697 0006152 311.2492  48.8233 15.57052607136540
RTU MIREA 1 (RS51S)     
1 61785U 24199BC  26161.60853516  .00048229  00000+0  58718-3 0  9998
2 61785  97.2952  38.1420 0005543 303.5639  56.5089 15.60372024133445
TEVEL2-4                
1 63213U 25052D   26160.68297184  .00017103  00000+0  51594-3 0  9997
2 63213  97.3918  57.0647 0004528 116.3023 243.8685 15.34347478 68969
TEVEL2-5                
1 63214U 25052E   26161.22442351  .00017598  00000+0  53329-3 0  9993
2 63214  97.3913  57.5550 0004507 117.7852 242.3848 15.34197759 69045
TEVEL2-6                
1 63215U 25052F   26161.62793760  .00015829  00000+0  48042-3 0  9992
2 63215  97.3920  57.9437 0004502 117.4748 242.6953 15.34172180 69106
TEVEL2-1                
1 63217U 25052H   26161.45896437  .00016982  00000+0  52380-3 0  9991
2 63217  97.3892  57.4069 0004352 126.5292 233.6352 15.33643468 69069
